LEMUR-1                 
1 40044U 14033AL  26179.94879860  .00001820  00000+0  21368-3 0  9992
2 40044  97.7887 329.4931 0049102  40.9576 319.5311 14.85288138647219
LEMUR-2-GREENBERG       
1 42837U 17042N   26180.50115927  .00014753  00000+0  48377-3 0  9996
2 42837  97.3814   1.0719 0007461 326.6875  33.3896 15.31697456490272
LEMUR-2-ANDIS           
1 42838U 17042P   26180.43667308  .00019517  00000+0  56997-3 0  9994
2 42838  97.3673   1.2348 0007361 324.3581  35.7170 15.35326504490339
LEMUR-2-MONSON          
1 42839U 17042Q   26179.75107641  .00014555  00000+0  52946-3 0  9994
2 42839  97.4076   0.2796 0005340 319.9828  40.1018 15.28335892489930
LEMUR-2-FURIAUS         
1 42840U 17042R   26180.43814079  .00016041  00000+0  54311-3 0  9993
2 42840  97.3767 358.9368 0007286  29.0903 331.0743 15.30644210490085
LEMUR-2-PETERG          
1 42841U 17042S   26180.49361609  .00022646  00000+0  68072-3 0  9993
2 42841  97.3983   5.5473 0002717 297.7290  62.3677 15.34408384490326
LEMUR-2-DEMBITZ         
1 42842U 17042T   26180.45779198  .00015192  00000+0  51458-3 0  9994
2 42842  97.3819   1.9891 0005706 343.7384  16.3673 15.30653680490227
LEMUR-2-ZACHARY         
1 42845U 17042W   26180.51460315  .00043085  00000+0  73212-3 0  9996
2 42845  97.3582  12.4214 0002315 331.3405  28.7719 15.51332540491112
LEMUR-2-AMANDA-SVANTE   
1 48269U 21034B   26180.15946314  .00029934  00000+0  88131-3 0  9999
2 48269  97.5767 258.7657 0003487 177.7498 182.3761 15.35006782282891
LEMUR-2-SPECIAL-K       
1 48273U 21034F   26180.16115847  .00183540  00000+0  16129-2 0  9995
2 48273  97.5651 267.9155 0005158 222.1007 137.9858 15.68212681283562
LEMUR-2-EMBRIONOVIS     
1 56970U 23084AQ  26180.37067449  .00012187  00000+0  32952-3 0  9993
2 56970  97.6300 325.0402 0007454 269.5868  90.4522 15.37849492169554
LEMUR-2-DEVERILL-M-T    
1 57391U 23100F   26179.67029513  .00024845  00000+0  61764-3 0  9998
2 57391  99.4465 221.7481 0005253   8.5746 351.5582 15.40311349163015
LEMUR-2-BASS            
1 58259U 23174D   26180.14072528  .00016459  00000+0  36866-3 0  9998
2 58259  97.3856 265.0221 0008104 126.2146 233.9852 15.43487440147208
LEMUR-2-JK0903EM1407    
1 58336U 23174CJ  26179.81413345  .00024728  00000+0  40789-3 0  9999
2 58336  97.3933 270.6153 0004898  85.8233 274.3580 15.52268155147532
LEMUR-2-MJR092620       
1 58340U 23174CN  26180.14010062  .00018382  00000+0  38704-3 0  9994
2 58340  97.3984 270.3917 0006698  81.3415 278.8592 15.45307890147490
LEMUR-2-NIMBUS2000      
1 58899U 24022A   26180.55264485  .00020563  00000+0  50764-3 0  9995
2 58899  97.4092  30.7123 0010098  78.5795 281.6585 15.40491258134177
LEMUR-2-VALHALLA        
1 58900U 24022B   26180.55190843  .00014834  00000+0  37245-3 0  9997
2 58900  97.4093  30.6947 0010603  74.4218 285.8197 15.40040808134177
LEMUR-2-CAEL            
1 58903U 24022E   26180.55119039  .00015608  00000+0  37524-3 0  9998
2 58903  97.4076  31.6520 0008704  60.8534 299.3583 15.41367470134243
LEMUR-2-JOHNNYTRUONG    
1 59146U 24043BA  26180.39470340  .00038263  00000+0  44922-3 0  9990
2 59146  97.5377 332.8616 0004777 140.0980 220.0629 15.61376856129945
LEMUR-2-TOMATOKECHUP    
1 60471U 24149D   26180.15828297  .00010143  00000+0  28906-3 0  9993
2 60471  97.3805 262.2365 0002448 152.8235 207.3137 15.36274472104001
LEMUR-2-STELLA          
1 60533U 24149BT  26180.45790433  .00010348  00000+0  60516-3 0  9995
2 60533  97.6739 262.9676 0001157  99.9442 260.1919 15.12058242102358
LEMUR-2-MARHISYAM       
1 60536U 24149BW  26179.18490250  .00010521  00000+0  62529-3 0  9999
2 60536  97.6885 262.1490 0003116  97.4793 262.6791 15.11467817102141
LEMUR-2-AHMED-ASRAR     
1 60576U 24149DN  26179.47293560  .00010680  00000+0  60908-3 0  9995
2 60576  97.7011 264.5752 0000758   2.3479 357.7755 15.12957260102276
LEMUR-2-LLOYD           
1 60577U 24149DP  26179.90923837  .00010345  00000+0  64963-3 0  9994
2 60577  97.6753 261.0451 0004986 110.7666 249.4098 15.09458323102163
LEMUR-2-SQUIRRELCOMM    
1 60578U 24149DQ  26180.53742130  .00005032  00000+0  33754-3 0  9992
2 60578  97.6717 261.4101 0005539  26.4849 333.6660 15.07286792102260
LEMUR-2-SIERRINI        
1 60579U 24149DR  26179.80660317  .00010059  00000+0  60250-3 0  9993
2 60579  97.6848 262.4509 0006488 133.1638 227.0135 15.11185763102214
LEMUR-2-WILSON          
1 62694U 25009CP  26180.14107928  .00002088  00000+0  19508-3 0  9995
2 62694  97.7024 258.3958 0003234  23.1201 337.0165 14.95213644 79144
LEMUR-2-STAR-FOX        
1 62696U 25009CR  26180.47925177  .00006797  00000+0  51411-3 0  9997
2 62696  97.6956 262.0000 0004275  86.8234 273.3480 15.02655012 79406
LEMUR-2-ARIANNA         
1 62699U 25009CU  26180.14475375  .00006704  00000+0  50720-3 0  9994
2 62699  97.6898 261.4329 0004634  92.1615 268.0140 15.02647822 79351
LEMUR-2-ALISIA          
1 62706U 25009DB  26180.45331872  .00008040  00000+0  60265-3 0  9990
2 62706  97.6941 262.5382 0002892 177.4065 182.7175 15.02939149102005
