OBJECT_NAME,OBJECT_ID,EPOCH,MEAN_MOTION,ECCENTRICITY,INCLINATION,RA_OF_ASC_NODE,ARG_OF_PERICENTER,MEAN_ANOMALY,EPHEMERIS_TYPE,CLASSIFICATION_TYPE,NORAD_CAT_ID,ELEMENT_SET_NO,REV_AT_EPOCH,BSTAR,MEAN_MOTION_DOT,MEAN_MOTION_DDOT
LEMUR-1,2014-033AL,2026-06-28T22:46:16.199040,14.85288138,.00491026,97.7887,329.4931,40.9576,319.5311,0,U,40044,999,64721,.21367781E-3,.182E-4,0
LEMUR-2-GREENBERG,2017-042N,2026-06-29T12:01:40.160928,15.31697456,.0007461,97.3814,1.0719,326.6875,33.3896,0,U,42837,999,49027,.48377E-3,.14753E-3,0
LEMUR-2-ANDIS,2017-042P,2026-06-29T10:28:48.554112,15.35326504,.0007361,97.3673,1.2348,324.3581,35.7170,0,U,42838,999,49033,.56997E-3,.19517E-3,0
LEMUR-2-MONSON,2017-042Q,2026-06-28T18:01:33.001824,15.28335892,.000534,97.4076,0.2796,319.9828,40.1018,0,U,42839,999,48993,.52946096E-3,.14555E-3,0
LEMUR-2-FURIAUS,2017-042R,2026-06-29T10:30:55.364256,15.30644210,.0007286,97.3767,358.9368,29.0903,331.0743,0,U,42840,999,49008,.54311E-3,.16041E-3,0
LEMUR-2-PETERG,2017-042S,2026-06-29T11:50:48.430176,15.34408384,.0002717,97.3983,5.5473,297.7290,62.3677,0,U,42841,999,49032,.68072E-3,.22646E-3,0
LEMUR-2-DEMBITZ,2017-042T,2026-06-29T10:59:13.227072,15.30653680,.0005706,97.3819,1.9891,343.7384,16.3673,0,U,42842,999,49022,.51458E-3,.15192E-3,0
LEMUR-2-ZACHARY,2017-042W,2026-06-29T12:21:01.712160,15.51332540,.0002315,97.3582,12.4214,331.3405,28.7719,0,U,42845,999,49111,.73212E-3,.43085E-3,0
LEMUR-2-AMANDA-SVANTE,2021-034B,2026-06-29T03:49:37.615296,15.35006782,.0003487,97.5767,258.7657,177.7498,182.3761,0,U,48269,999,28289,.88131E-3,.29934E-3,0
LEMUR-2-SPECIAL-K,2021-034F,2026-06-29T03:52:04.091808,15.68212681,.0005158,97.5651,267.9155,222.1007,137.9858,0,U,48273,999,28356,.16129E-2,.18354E-2,0
LEMUR-2-EMBRIONOVIS,2023-084AQ,2026-06-29T08:53:46.275936,15.37849492,.0007454,97.6300,325.0402,269.5868,90.4522,0,U,56970,999,16955,.32952E-3,.12187E-3,0
LEMUR-2-DEVERILL-M-T,2023-100F,2026-06-28T16:05:13.499232,15.40311349,.00052533,99.4465,221.7481,8.5746,351.5582,0,U,57391,999,16301,.61764114E-3,.24845E-3,0
LEMUR-2-BASS,2023-174D,2026-06-29T03:22:38.664192,15.43487440,.0008104,97.3856,265.0221,126.2146,233.9852,0,U,58259,999,14720,.36866E-3,.16459E-3,0
LEMUR-2-JK0903EM1407,2023-174CJ,2026-06-28T19:32:21.130080,15.52268155,.00048984,97.3933,270.6153,85.8233,274.3580,0,U,58336,999,14753,.40788795E-3,.24728E-3,0
LEMUR-2-MJR092620,2023-174CN,2026-06-29T03:21:44.693568,15.45307890,.0006698,97.3984,270.3917,81.3415,278.8592,0,U,58340,999,14749,.38704E-3,.18382E-3,0
LEMUR-2-NIMBUS2000,2024-022A,2026-06-29T13:15:48.515040,15.40491258,.0010098,97.4092,30.7123,78.5795,281.6585,0,U,58899,999,13417,.50764E-3,.20563E-3,0
LEMUR-2-VALHALLA,2024-022B,2026-06-29T13:14:44.888352,15.40040808,.0010603,97.4093,30.6947,74.4218,285.8197,0,U,58900,999,13417,.37245E-3,.14834E-3,0
LEMUR-2-CAEL,2024-022E,2026-06-29T13:13:42.849696,15.41367470,.0008704,97.4076,31.6520,60.8534,299.3583,0,U,58903,999,13424,.37524E-3,.15608E-3,0
LEMUR-2-JOHNNYTRUONG,2024-043BA,2026-06-29T09:28:22.373760,15.61376856,.0004777,97.5377,332.8616,140.0980,220.0629,0,U,59146,999,12994,.44922E-3,.38263E-3,0
LEMUR-2-TOMATOKECHUP,2024-149D,2026-06-29T03:47:55.648608,15.36274472,.0002448,97.3805,262.2365,152.8235,207.3137,0,U,60471,999,10400,.28906E-3,.10143E-3,0
LEMUR-2-STELLA,2024-149BT,2026-06-29T10:59:22.934112,15.12058242,.0001157,97.6739,262.9676,99.9442,260.1919,0,U,60533,999,10235,.60516E-3,.10348E-3,0
LEMUR-2-MARHISYAM,2024-149BW,2026-06-28T04:26:15.576000,15.11467817,.00031163,97.6885,262.1490,97.4793,262.6791,0,U,60536,999,10214,.62528833E-3,.10521E-3,0
LEMUR-2-AHMED-ASRAR,2024-149DN,2026-06-28T11:21:01.635840,15.12957260,.00007585,97.7011,264.5752,2.3479,357.7755,0,U,60576,999,10227,.60907901E-3,.1068E-3,0
LEMUR-2-LLOYD,2024-149DP,2026-06-28T21:49:18.195168,15.09458323,.00049867,97.6753,261.0451,110.7666,249.4098,0,U,60577,999,10216,.64963094E-3,.10345E-3,0
LEMUR-2-SQUIRRELCOMM,2024-149DQ,2026-06-29T12:53:53.200320,15.07286792,.0005539,97.6717,261.4101,26.4849,333.6660,0,U,60578,999,10226,.33754E-3,.5032E-4,0
LEMUR-2-SIERRINI,2024-149DR,2026-06-28T19:21:30.513888,15.11185763,.00064882,97.6848,262.4509,133.1638,227.0135,0,U,60579,999,10221,.60249537E-3,.10059E-3,0
LEMUR-2-WILSON,2025-009CP,2026-06-29T03:23:09.249792,14.95213644,.0003234,97.7024,258.3958,23.1201,337.0165,0,U,62694,999,7914,.19508E-3,.2088E-4,0
LEMUR-2-STAR-FOX,2025-009CR,2026-06-29T11:30:07.352928,15.02655012,.0004275,97.6956,262.0000,86.8234,273.3480,0,U,62696,999,7940,.51411E-3,.6797E-4,0
LEMUR-2-ARIANNA,2025-009CU,2026-06-29T03:28:26.724000,15.02647822,.0004634,97.6898,261.4329,92.1615,268.0140,0,U,62699,999,7935,.5072E-3,.6704E-4,0
LEMUR-2-ALISIA,2025-009DB,2026-06-29T10:52:46.737408,15.02939149,.0002892,97.6941,262.5382,177.4065,182.7175,0,U,62706,999,10200,.60265E-3,.804E-4,0
